CCSDS_OMM_VERS = 2.0
CREATION_DATE  = 
ORIGINATOR     = 

OBJECT_NAME    = FLOCK 4H-22
OBJECT_ID      = 2025-276BM
CENTER_NAME    = EARTH
REF_FRAME      = TEME
TIME_SYSTEM    = UTC
MEAN_ELEMENT_THEORY = SGP/SGP4

EPOCH          = 2025-12-28T21:27:34.447680
MEAN_MOTION    = 15.17578308
ECCENTRICITY   = .0001592
INCLINATION    = 97.4371
RA_OF_ASC_NODE = 74.3604
ARG_OF_PERICENTER = 252.7950
MEAN_ANOMALY   = 107.3109

EPHEMERIS_TYPE = 0
CLASSIFICATION_TYPE = U
NORAD_CAT_ID   = 66725
ELEMENT_SET_NO = 999
REV_AT_EPOCH   = 457
BSTAR          = .48826E-3
MEAN_MOTION_DOT = .9748E-4
MEAN_MOTION_DDOT = 0

CCSDS_OMM_VERS = 2.0
CREATION_DATE  = 
ORIGINATOR     = 

OBJECT_NAME    = FLOCK 4H-23
OBJECT_ID      = 2025-276BN
CENTER_NAME    = EARTH
REF_FRAME      = TEME
TIME_SYSTEM    = UTC
MEAN_ELEMENT_THEORY = SGP/SGP4

EPOCH          = 2025-12-28T21:34:17.112288
MEAN_MOTION    = 15.17300735
ECCENTRICITY   = .00037784
INCLINATION    = 97.4437
RA_OF_ASC_NODE = 74.3834
ARG_OF_PERICENTER = 216.8254
MEAN_ANOMALY   = 143.2720

EPHEMERIS_TYPE = 0
CLASSIFICATION_TYPE = U
NORAD_CAT_ID   = 66726
ELEMENT_SET_NO = 999
REV_AT_EPOCH   = 457
BSTAR          = .42156652E-3
MEAN_MOTION_DOT = .834E-4
MEAN_MOTION_DDOT = 0

CCSDS_OMM_VERS = 2.0
CREATION_DATE  = 
ORIGINATOR     = 

OBJECT_NAME    = FLOCK 4H-24
OBJECT_ID      = 2025-276BP
CENTER_NAME    = EARTH
REF_FRAME      = TEME
TIME_SYSTEM    = UTC
MEAN_ELEMENT_THEORY = SGP/SGP4

EPOCH          = 2025-12-28T21:31:16.061088
MEAN_MOTION    = 15.17407814
ECCENTRICITY   = .00030733
INCLINATION    = 97.4435
RA_OF_ASC_NODE = 74.3884
ARG_OF_PERICENTER = 233.1541
MEAN_ANOMALY   = 126.9411

EPHEMERIS_TYPE = 0
CLASSIFICATION_TYPE = U
NORAD_CAT_ID   = 66727
ELEMENT_SET_NO = 999
REV_AT_EPOCH   = 457
BSTAR          = .44394178E-3
MEAN_MOTION_DOT = .8813E-4
MEAN_MOTION_DDOT = 0

CCSDS_OMM_VERS = 2.0
CREATION_DATE  = 
ORIGINATOR     = 

OBJECT_NAME    = FLOCK 4H-25
OBJECT_ID      = 2025-276BQ
CENTER_NAME    = EARTH
REF_FRAME      = TEME
TIME_SYSTEM    = UTC
MEAN_ELEMENT_THEORY = SGP/SGP4

EPOCH          = 2025-12-28T22:40:49.557792
MEAN_MOTION    = 15.18299604
ECCENTRICITY   = .00018517
INCLINATION    = 97.4394
RA_OF_ASC_NODE = 74.4567
ARG_OF_PERICENTER = 112.3831
MEAN_ANOMALY   = 247.7600

EPHEMERIS_TYPE = 0
CLASSIFICATION_TYPE = U
NORAD_CAT_ID   = 66728
ELEMENT_SET_NO = 999
REV_AT_EPOCH   = 386
BSTAR          = .45419188E-3
MEAN_MOTION_DOT = .9252E-4
MEAN_MOTION_DDOT = 0

CCSDS_OMM_VERS = 2.0
CREATION_DATE  = 
ORIGINATOR     = 

OBJECT_NAME    = FLOCK 4H-26
OBJECT_ID      = 2025-276BR
CENTER_NAME    = EARTH
REF_FRAME      = TEME
TIME_SYSTEM    = UTC
MEAN_ELEMENT_THEORY = SGP/SGP4

EPOCH          = 2025-12-28T21:36:51.022656
MEAN_MOTION    = 15.17228440
ECCENTRICITY   = .00039139
INCLINATION    = 97.4388
RA_OF_ASC_NODE = 74.3620
ARG_OF_PERICENTER = 233.5049
MEAN_ANOMALY   = 126.5824

EPHEMERIS_TYPE = 0
CLASSIFICATION_TYPE = U
NORAD_CAT_ID   = 66729
ELEMENT_SET_NO = 999
REV_AT_EPOCH   = 457
BSTAR          = .489185E-3
MEAN_MOTION_DOT = .967E-4
MEAN_MOTION_DDOT = 0

CCSDS_OMM_VERS = 2.0
CREATION_DATE  = 
ORIGINATOR     = 

OBJECT_NAME    = FLOCK 4H-27
OBJECT_ID      = 2025-276BS
CENTER_NAME    = EARTH
REF_FRAME      = TEME
TIME_SYSTEM    = UTC
MEAN_ELEMENT_THEORY = SGP/SGP4

EPOCH          = 2025-12-28T22:44:39.133824
MEAN_MOTION    = 15.18174788
ECCENTRICITY   = .00014993
INCLINATION    = 97.4369
RA_OF_ASC_NODE = 74.4433
ARG_OF_PERICENTER = 124.7264
MEAN_ANOMALY   = 235.4111

EPHEMERIS_TYPE = 0
CLASSIFICATION_TYPE = U
NORAD_CAT_ID   = 66730
ELEMENT_SET_NO = 999
REV_AT_EPOCH   = 458
BSTAR          = .7385088E-3
MEAN_MOTION_DOT = .15043E-3
MEAN_MOTION_DDOT = 0

CCSDS_OMM_VERS = 2.0
CREATION_DATE  = 
ORIGINATOR     = 

OBJECT_NAME    = FLOCK 4H-28
OBJECT_ID      = 2025-276BT
CENTER_NAME    = EARTH
REF_FRAME      = TEME
TIME_SYSTEM    = UTC
MEAN_ELEMENT_THEORY = SGP/SGP4

EPOCH          = 2025-12-28T21:36:28.505088
MEAN_MOTION    = 15.17213802
ECCENTRICITY   = .00035173
INCLINATION    = 97.4376
RA_OF_ASC_NODE = 74.3577
ARG_OF_PERICENTER = 234.6341
MEAN_ANOMALY   = 125.4564

EPHEMERIS_TYPE = 0
CLASSIFICATION_TYPE = U
NORAD_CAT_ID   = 66731
ELEMENT_SET_NO = 999
REV_AT_EPOCH   = 457
BSTAR          = .48904348E-3
MEAN_MOTION_DOT = .9663E-4
MEAN_MOTION_DDOT = 0

CCSDS_OMM_VERS = 2.0
CREATION_DATE  = 
ORIGINATOR     = 

OBJECT_NAME    = FLOCK 4H-29
OBJECT_ID      = 2025-276BU
CENTER_NAME    = EARTH
REF_FRAME      = TEME
TIME_SYSTEM    = UTC
MEAN_ELEMENT_THEORY = SGP/SGP4

EPOCH          = 2025-12-28T21:32:26.788992
MEAN_MOTION    = 15.17356469
ECCENTRICITY   = .00021801
INCLINATION    = 97.4368
RA_OF_ASC_NODE = 74.3559
ARG_OF_PERICENTER = 247.2887
MEAN_ANOMALY   = 112.8117

EPHEMERIS_TYPE = 0
CLASSIFICATION_TYPE = U
NORAD_CAT_ID   = 66732
ELEMENT_SET_NO = 999
REV_AT_EPOCH   = 457
BSTAR          = .43618103E-3
MEAN_MOTION_DOT = .8644E-4
MEAN_MOTION_DDOT = 0

CCSDS_OMM_VERS = 2.0
CREATION_DATE  = 
ORIGINATOR     = 

OBJECT_NAME    = FLOCK 4H-30
OBJECT_ID      = 2025-276BV
CENTER_NAME    = EARTH
REF_FRAME      = TEME
TIME_SYSTEM    = UTC
MEAN_ELEMENT_THEORY = SGP/SGP4

EPOCH          = 2025-12-28T18:24:19.182816
MEAN_MOTION    = 15.17255052
ECCENTRICITY   = .00038295
INCLINATION    = 97.4428
RA_OF_ASC_NODE = 74.2525
ARG_OF_PERICENTER = 233.2222
MEAN_ANOMALY   = 126.8661

EPHEMERIS_TYPE = 0
CLASSIFICATION_TYPE = U
NORAD_CAT_ID   = 66733
ELEMENT_SET_NO = 999
REV_AT_EPOCH   = 455
BSTAR          = -.21335819E-2
MEAN_MOTION_DOT = -.42261E-3
MEAN_MOTION_DDOT = 0

CCSDS_OMM_VERS = 2.0
CREATION_DATE  = 
ORIGINATOR     = 

OBJECT_NAME    = FLOCK 4H-31
OBJECT_ID      = 2025-276BW
CENTER_NAME    = EARTH
REF_FRAME      = TEME
TIME_SYSTEM    = UTC
MEAN_ELEMENT_THEORY = SGP/SGP4

EPOCH          = 2025-12-28T21:34:19.602336
MEAN_MOTION    = 15.17285973
ECCENTRICITY   = .00027369
INCLINATION    = 97.4366
RA_OF_ASC_NODE = 74.3545
ARG_OF_PERICENTER = 241.1659
MEAN_ANOMALY   = 118.9300

EPHEMERIS_TYPE = 0
CLASSIFICATION_TYPE = U
NORAD_CAT_ID   = 66734
ELEMENT_SET_NO = 999
REV_AT_EPOCH   = 457
BSTAR          = .72649355E-3
MEAN_MOTION_DOT = .14425E-3
MEAN_MOTION_DDOT = 0

CCSDS_OMM_VERS = 2.0
CREATION_DATE  = 
ORIGINATOR     = 

OBJECT_NAME    = FLOCK 4H-32
OBJECT_ID      = 2025-276BX
CENTER_NAME    = EARTH
REF_FRAME      = TEME
TIME_SYSTEM    = UTC
MEAN_ELEMENT_THEORY = SGP/SGP4

EPOCH          = 2025-12-28T21:34:47.540640
MEAN_MOTION    = 15.17311901
ECCENTRICITY   = .00038086
INCLINATION    = 97.4422
RA_OF_ASC_NODE = 74.3779
ARG_OF_PERICENTER = 231.7911
MEAN_ANOMALY   = 128.2980

EPHEMERIS_TYPE = 0
CLASSIFICATION_TYPE = U
NORAD_CAT_ID   = 66735
ELEMENT_SET_NO = 999
REV_AT_EPOCH   = 457
BSTAR          = .52674897E-3
MEAN_MOTION_DOT = .10443E-3
MEAN_MOTION_DDOT = 0

CCSDS_OMM_VERS = 2.0
CREATION_DATE  = 
ORIGINATOR     = 

OBJECT_NAME    = FLOCK 4H-33
OBJECT_ID      = 2025-276BY
CENTER_NAME    = EARTH
REF_FRAME      = TEME
TIME_SYSTEM    = UTC
MEAN_ELEMENT_THEORY = SGP/SGP4

EPOCH          = 2025-12-28T22:39:39.270528
MEAN_MOTION    = 15.18395015
ECCENTRICITY   = .00030615
INCLINATION    = 97.4424
RA_OF_ASC_NODE = 74.4700
ARG_OF_PERICENTER = 143.6131
MEAN_ANOMALY   = 216.5312

EPHEMERIS_TYPE = 0
CLASSIFICATION_TYPE = U
NORAD_CAT_ID   = 66736
ELEMENT_SET_NO = 999
REV_AT_EPOCH   = 458
BSTAR          = .61076351E-3
MEAN_MOTION_DOT = .12505E-3
MEAN_MOTION_DDOT = 0

