FLOCK 4H-22             
1 66725U 25276BM  25362.89414870  .00009748  00000+0  48826-3 0  9995
2 66725  97.4371  74.3604 0001592 252.7950 107.3109 15.17578308  4572
FLOCK 4H-23             
1 66726U 25276BN  25362.89880917  .00008340  00000+0  42157-3 0  9993
2 66726  97.4437  74.3834 0003778 216.8254 143.2720 15.17300735  4572
FLOCK 4H-24             
1 66727U 25276BP  25362.89671367  .00008813  00000+0  44394-3 0  9991
2 66727  97.4435  74.3884 0003073 233.1541 126.9411 15.17407814  4576
FLOCK 4H-25             
1 66728U 25276BQ  25362.94501803  .00009252  00000+0  45419-3 0  9992
2 66728  97.4394  74.4567 0001851 112.3831 247.7600 15.18299604  3862
FLOCK 4H-26             
1 66729U 25276BR  25362.90059054  .00009670  00000+0  48919-3 0  9997
2 66729  97.4388  74.3620 0003913 233.5049 126.5824 15.17228440  4573
FLOCK 4H-27             
1 66730U 25276BS  25362.94767516  .00015043  00000+0  73851-3 0  9996
2 66730  97.4369  74.4433 0001499 124.7264 235.4111 15.18174788  4580
FLOCK 4H-28             
1 66731U 25276BT  25362.90032992  .00009663  00000+0  48904-3 0  9998
2 66731  97.4376  74.3577 0003517 234.6341 125.4564 15.17213802  4576
FLOCK 4H-29             
1 66732U 25276BU  25362.89753228  .00008644  00000+0  43618-3 0  9994
2 66732  97.4368  74.3559 0002180 247.2887 112.8117 15.17356469  4579
FLOCK 4H-30             
1 66733U 25276BV  25362.76688869 -.00042261  00000+0 -21336-2 0  9996
2 66733  97.4428  74.2525 0003829 233.2222 126.8661 15.17255052  4551
FLOCK 4H-31             
1 66734U 25276BW  25362.89883799  .00014425  00000+0  72649-3 0  9993
2 66734  97.4366  74.3545 0002736 241.1659 118.9300 15.17285973  4573
FLOCK 4H-32             
1 66735U 25276BX  25362.89916135  .00010443  00000+0  52675-3 0  9998
2 66735  97.4422  74.3779 0003808 231.7911 128.2980 15.17311901  4572
FLOCK 4H-33             
1 66736U 25276BY  25362.94420452  .00012505  00000+0  61076-3 0  9993
2 66736  97.4424  74.4700 0003061 143.6131 216.5312 15.18395015  4586
